SOYUZ-MS 28             
1 66664U 25275A   25347.12152100  .00016130  00000+0  29450-3 0  9995
2 66664  51.6303 140.5889 0003238 241.9684 118.0978 15.49559837  1284
1998-067XS              
1 66906U 98067XS  25346.72929150  .00036816  00000+0  63717-3 0  9992
2 66906  51.6293 142.4703 0003602 202.1444 157.9390 15.50562979  1615
1998-067XT              
1 66907U 98067XT  25346.72657438  .00084420  00000+0  13979-2 0  9998
2 66907  51.6298 142.4529 0004476 226.7870 133.2746 15.51436780  1615
1998-067XU              
1 66908U 98067XU  25347.30591671  .00106014  00000+0  17364-2 0  9996
2 66908  51.6298 139.5715 0004465 229.4580 130.6021 15.51634533  1709
SILVERSAT               
1 66909U 98067XV  25346.91909407  .00094974  00000+0  15570-2 0  9991
2 66909  51.6297 141.4878 0004449 228.6613 131.3994 15.51661311  1645
1998-067XW              
1 66910U 98067XW  25346.85318993  .00081487  00000+0  13339-2 0  9996
2 66910  51.6298 141.7982 0005252 209.4111 150.6584 15.51770354  1636
1998-067XX              
1 66911U 98067XX  25346.72367662  .00096916  00000+0  15692-2 0  9997
2 66911  51.6296 142.4333 0004979 210.3883 149.6819 15.51996459  1607
1998-067XY              
1 66912U 98067XY  25346.72752968  .00067169  00000+0  11286-2 0  9998
2 66912  51.6300 142.4585 0004576 223.4610 136.6019 15.51126460  1604
